{"spkid": "50728923", "covariance": {"epoch": "2457377.5", "elements": [{"sigma": 3.68769963796477e-08, "name": "e", "title": "eccentricity", "value": ".4000615236658051", "units": null, "label": "e"}, {"name": "q", "sigma": 5.04832284823726e-08, "units": "au", "value": ".9386174050153988", "title": "perihelion distance", "label": "q"}, {"label": "tp", "name": "tp", "sigma": 1.59384411508897e-05, "value": "2457252.867834398854", "title": "time of perihelion passage", "units": "TDB"}, {"sigma": 7.57454526596767e-06, "name": "om", "value": "190.9432032561647", "title": "longitude of the ascending node", "units": "deg", "label": "node"}, {"units": "deg", "title": "argument of perihelion", "value": "126.2649721588744", "sigma": 1.34109924939965e-05, "name": "w", "label": "peri"}, {"units": "deg", "title": "inclination", "value": "15.22632016014004", "name": "i", "sigma": 1.03979444458288e-05, "label": "i"}], "data": [["1.359912861984548E-15", "-1.828264238873774E-15", "4.058694222283674E-13", "-1.016923130527862E-14", "2.057990768039398E-13", "-1.356129855732582E-13"], ["-1.828264238873774E-15", "2.548556358003433E-15", "-5.339216110501276E-13", "1.007556731782823E-14", "-2.547982032195495E-13", "1.693146342368292E-13"], ["4.058694222283674E-13", "-5.339216110501276E-13", "2.540339063203758E-10", "-2.680655809930623E-12", "1.718389262812262E-10", "-6.872395829879697E-11"], ["-1.016923130527862E-14", "1.007556731782823E-14", "-2.680655809930623E-12", "5.73737359861932E-11", "-5.672660837984871E-11", "4.342139349117841E-11"], ["2.057990768039398E-13", "-2.547982032195495E-13", "1.718389262812262E-10", "-5.672660837984871E-11", "1.798547196740318E-10", "-8.553121145888612E-11"], ["-1.356129855732582E-13", "1.693146342368292E-13", "-6.872395829879697E-11", "4.342139349117841E-11", "-8.553121145888612E-11", "1.081172486985429E-10"]], "labels": ["e", "q", "tp", "node", "peri", "i"]}, "elements": [{"title": "eccentricity", "value": ".399708853632959", "units": null, "name": "e", "sigma": "3.661E-8", "label": "e"}, {"label": "a", "name": "a", "sigma": "2.0157E-8", "units": "au", "title": "semi-major axis", "value": "1.564216531052192"}, {"value": ".9389853345915962", "title": "perihelion distance", "units": "au", "sigma": "5.0376E-8", "name": "q", "label": "q"}, {"name": "i", "sigma": "1.0397E-5", "value": "15.22988245741921", "title": "inclination; angle with respect to x-y ecliptic plane", "units": "deg", "label": "i"}, {"title": "longitude of the ascending node", "value": "190.8515878900602", "units": "deg", "name": "om", "sigma": "7.5903E-6", "label": "node"}, {"label": "peri", "sigma": "1.3446E-5", "name": "w", "title": "argument of perihelion", "value": "126.3592217055844", "units": "deg"}, {"label": "M", "sigma": "4.3797E-5", "name": "ma", "units": "deg", "title": "mean anomaly", "value": "188.6657729397364"}, {"units": "TDB", "value": "2461540.583344321580", "title": "time of perihelion passage", "name": "tp", "sigma": "9.3424E-5", "label": "tp"}, {"title": "sidereal orbital period", "value": "714.5682801178212", "units": "d", "sigma": "1.3812E-5", "name": "per", "label": "period"}, {"label": "n", "name": "n", "sigma": "9.738E-9", "units": "deg/d", "value": ".5038007003902295", "title": "mean motion"}, {"label": "Q", "name": "ad", "sigma": "2.8213E-8", "units": "au", "value": "2.189447727512787", "title": "aphelion distance"}], "epoch": "2461200.5"}